$$SOE
2460721.500000000, A.D. 2025-Feb-15 00:00:00.0000, 1.093427644575969E+08, -3.611030534952876E+08, 1.246879808393334E+07,
2460728.500000000, A.D. 2025-Feb-22 00:00:00.0000, 1.199699790757147E+08, -3.578925637173669E+08, 1.287798986123979E+07,
2460735.500000000, A.D. 2025-Mar-01 00:00:00.0000, 1.304891048679555E+08, -3.543596667191043E+08, 1.327557825280149E+07,
2460742.500000000, A.D. 2025-Mar-08 00:00:00.0000, 1.408908257264675E+08, -3.505079767297339E+08, 1.366122085019222E+07,
2460749.500000000, A.D. 2025-Mar-15 00:00:00.0000, 1.511659434786952E+08, -3.463413487063941E+08, 1.403458557098633E+07,
2460756.500000000, A.D. 2025-Mar-22 00:00:00.0000, 1.613053803076399E+08, -3.418638744128913E+08, 1.439535103818677E+07,
2460763.500000000, A.D. 2025-Mar-29 00:00:00.0000, 1.713001824589263E+08, -3.370798807647816E+08, 1.474320664715578E+07,
2460770.500000000, A.D. 2025-Apr-05 00:00:00.0000, 1.811415255693340E+08, -3.319939273028200E+08, 1.507785254679942E+07,
2460777.500000000, A.D. 2025-Apr-12 00:00:00.0000, 1.908207196992425E+08, -3.266108026913891E+08, 1.539899972039771E+07,
2460784.500000000, A.D. 2025-Apr-19 00:00:00.0000, 2.003292138895036E+08, -3.209355211224647E+08, 1.570637011136524E+07,
2460791.500000000, A.D. 2025-Apr-26 00:00:00.0000, 2.096586005220141E+08, -3.149733188265063E+08, 1.599969675254793E+07,
2460798.500000000, A.D. 2025-May-03 00:00:00.0000, 2.188006196050653E+08, -3.087296506690862E+08, 1.627872389034872E+07,
2460805.500000000, A.D. 2025-May-10 00:00:00.0000, 2.277471630188661E+08, -3.022101868220007E+08, 1.654320710186699E+07,
2460812.500000000, A.D. 2025-May-17 00:00:00.0000, 2.364902787643953E+08, -2.954208095461390E+08, 1.679291339828244E+07,
2460819.500000000, A.D. 2025-May-24 00:00:00.0000, 2.450221753967842E+08, -2.883676101361576E+08, 1.702762129413164E+07,
2460826.500000000, A.D. 2025-May-31 00:00:00.0000, 2.533352270693500E+08, -2.810568857132151E+08, 1.724712083019461E+07,
2460833.500000000, A.D. 2025-Jun-07 00:00:00.0000, 2.614219787939584E+08, -2.734951346605268E+08, 1.745121368620510E+07,
2460840.500000000, A.D. 2025-Jun-14 00:00:00.0000, 2.692751495549703E+08, -2.656890513664622E+08, 1.763971354603736E+07,
2460847.500000000, A.D. 2025-Jun-21 00:00:00.0000, 2.768876344921195E+08, -2.576455235379754E+08, 1.781244633542277E+07,
2460854.500000000, A.D. 2025-Jun-28 00:00:00.0000, 2.842525092821603E+08, -2.493716303071321E+08, 1.796925018821219E+07,
2460861.500000000, A.D. 2025-Jul-05 00:00:00.0000, 2.913630352095941E+08, -2.408746389636462E+08, 1.810997545607579E+07,
2460868.500000000, A.D. 2025-Jul-12 00:00:00.0000, 2.982126637451824E+08, -2.321620011118629E+08, 1.823448480553362E+07,
2460875.500000000, A.D. 2025-Jul-19 00:00:00.0000, 3.047950408310379E+08, -2.232413488236529E+08, 1.834265333900906E+07,
2460882.500000000, A.D. 2025-Jul-26 00:00:00.0000, 3.111040110886768E+08, -2.141204908416014E+08, 1.843436871716639E+07,
2460889.500000000, A.D. 2025-Aug-02 00:00:00.0000, 3.171336220186786E+08, -2.048074088078560E+08, 1.850953127906333E+07,
2460896.500000000, A.D. 2025-Aug-09 00:00:00.0000, 3.228781282160364E+08, -1.953102535284739E+08, 1.856805415701332E+07,
2460903.500000000, A.D. 2025-Aug-16 00:00:00.0000, 3.283319956764144E+08, -1.856373413295036E+08, 1.860986337357835E+07,
2460910.500000000, A.D. 2025-Aug-23 00:00:00.0000, 3.334899064828071E+08, -1.757971504781791E+08, 1.863489789440735E+07,
2460917.500000000, A.D. 2025-Aug-30 00:00:00.0000, 3.383467642005503E+08, -1.657983169430291E+08, 1.864310966470771E+07,
2460924.500000000, A.D. 2025-Sep-06 00:00:00.0000, 3.428976985648550E+08, -1.556496284827684E+08, 1.863446384162760E+07,
2460931.500000000, A.D. 2025-Sep-13 00:00:00.0000, 3.471380677904199E+08, -1.453600195388619E+08, 1.860893917301089E+07,
2460938.500000000, A.D. 2025-Sep-20 00:00:00.0000, 3.510634617734163E+08, -1.349385685649950E+08, 1.856652808727314E+07,
2460945.500000000, A.D. 2025-Sep-27 00:00:00.0000, 3.546697072438602E+08, -1.243944946695112E+08, 1.850723665139968E+07,
2460952.500000000, A.D. 2025-Oct-04 00:00:00.0000, 3.579528728533881E+08, -1.137371530220451E+08, 1.843108462650039E+07,
2460959.500000000, A.D. 2025-Oct-11 00:00:00.0000, 3.609092738250691E+08, -1.029760299594840E+08, 1.833810557840696E+07,
2460966.500000000, A.D. 2025-Oct-18 00:00:00.0000, 3.635354764470236E+08, -9.212073805769724E+07, 1.822834699482864E+07,
2460973.500000000, A.D. 2025-Oct-25 00:00:00.0000, 3.658283025458489E+08, -8.118101114936486E+07, 1.810187039687121E+07,
2460980.500000000, A.D. 2025-Nov-01 00:00:00.0000, 3.677848339747682E+08, -7.016669926309066E+07, 1.795875144211376E+07,
2460987.500000000, A.D. 2025-Nov-08 00:00:00.0000, 3.694024171458784E+08, -5.908776350569139E+07, 1.779908001294157E+07,
2460994.500000000, A.D. 2025-Nov-15 00:00:00.0000, 3.706786677477462E+08, -4.795427093708839E+07, 1.762296027094414E+07,
2461001.500000000, A.D. 2025-Nov-22 00:00:00.0000, 3.716114760412953E+08, -3.677638920780904E+07, 1.743051065709599E+07,
2461008.500000000, A.D. 2025-Nov-29 00:00:00.0000, 3.721990125708362E+08, -2.556437981108129E+07, 1.722186394350022E+07,
2461015.500000000, A.D. 2025-Dec-06 00:00:00.0000, 3.724397320087354E+08, -1.432859007355554E+07, 1.699716753462664E+07,
2461022.500000000, A.D. 2025-Dec-13 00:00:00.0000, 3.723323755620742E+08, -3.079447248383299E+06, 1.675658370247435E+07,
2461029.500000000, A.D. 2025-Dec-20 00:00:00.0000, 3.718759754213429E+08, 8.172546320399962E+06, 1.650028951738003E+07,
2461036.500000000, A.D. 2025-Dec-27 00:00:00.0000, 3.710698601642396E+08, 1.941681956437027E+07, 1.622847678369880E+07,
2461043.500000000, A.D. 2026-Jan-03 00:00:00.0000, 3.699136596443877E+08, 3.064273998262176E+07, 1.594135206335684E+07,
2461050.500000000, A.D. 2026-Jan-10 00:00:00.0000, 3.684073094631001E+08, 4.183962118922918E+07, 1.563913672117285E+07,
2461057.500000000, A.D. 2026-Jan-17 00:00:00.0000, 3.665510552438216E+08, 5.299673063344115E+07, 1.532206696251239E+07,
2461064.500000000, A.D. 2026-Jan-24 00:00:00.0000, 3.643454567733094E+08, 6.410329752386098E+07, 1.499039385736920E+07,
2461071.500000000, A.D. 2026-Jan-31 00:00:00.0000, 3.617913920186122E+08, 7.514852095761067E+07, 1.464438334756774E+07,
2461078.500000000, A.D. 2026-Feb-07 00:00:00.0000, 3.588900610670372E+08, 8.612157820502661E+07, 1.428431622630729E+07,
2461085.500000000, A.D. 2026-Feb-14 00:00:00.0000, 3.556429902278786E+08, 9.701163314065386E+07, 1.391048806503539E+07,
2461092.500000000, A.D. 2026-Feb-21 00:00:00.0000, 3.520520366659793E+08, 1.078078454003900E+08, 1.352320909813114E+07,
2461099.500000000, A.D. 2026-Feb-28 00:00:00.0000, 3.481193924599128E+08, 1.184993814215550E+08, 1.312280425794113E+07,
2461106.500000000, A.D. 2026-Mar-07 00:00:00.0000, 3.438475860084146E+08, 1.290754254206245E+08, 1.270961338930084E+07,
2461113.500000000, A.D. 2026-Mar-14 00:00:00.0000, 3.392394835429558E+08, 1.395251879733171E+08, 1.228399119691708E+07,
2461120.500000000, A.D. 2026-Mar-21 00:00:00.0000, 3.342982924998075E+08, 1.498379150913297E+08, 1.184630699643729E+07,
2461127.500000000, A.D. 2026-Mar-28 00:00:00.0000, 3.290275647123465E+08, 1.600028988272719E+08, 1.139694453636584E+07,
2461134.500000000, A.D. 2026-Apr-04 00:00:00.0000, 3.234311987974590E+08, 1.700094884468998E+08, 1.093630186737986E+07,
2461141.500000000, A.D. 2026-Apr-11 00:00:00.0000, 3.175134419922786E+08, 1.798471018100753E+08, 1.046479120492719E+07,
2461148.500000000, A.D. 2026-Apr-18 00:00:00.0000, 3.112788915830417E+08, 1.895052369499671E+08, 9.982838769952133E+06,
2461155.500000000, A.D. 2026-Apr-25 00:00:00.0000, 3.047324959514945E+08, 1.989734838573801E+08, 9.490884604133889E+06,
2461162.500000000, A.D. 2026-May-02 00:00:00.0000, 2.978795552459539E+08, 2.082415364308639E+08, 8.989382353426471E+06,
2461169.500000000, A.D. 2026-May-09 00:00:00.0000, 2.907257217765150E+08, 2.172992045161249E+08, 8.478799002056926E+06,
2461176.500000000, A.D. 2026-May-16 00:00:00.0000, 2.832770004879164E+08, 2.261364261618510E+08, 7.959614532616600E+06,
2461183.500000000, A.D. 2026-May-23 00:00:00.0000, 2.755397495367414E+08, 2.347432810984779E+08, 7.432321589629963E+06,
2461190.500000000, A.D. 2026-May-30 00:00:00.0000, 2.675206788629339E+08, 2.431100057409647E+08, 6.897425362161040E+06,
2461197.500000000, A.D. 2026-Jun-06 00:00:00.0000, 2.592268464108691E+08, 2.512270064307589E+08, 6.355443447145298E+06,
2461204.500000000, A.D. 2026-Jun-13 00:00:00.0000, 2.506656556481046E+08, 2.590848711002600E+08, 5.806905372744113E+06,
2461211.500000000, A.D. 2026-Jun-20 00:00:00.0000, 2.418448538565257E+08, 2.666743822608783E+08, 5.252352065301165E+06,
2461218.500000000, A.D. 2026-Jun-27 00:00:00.0000, 2.327725294707525E+08, 2.739865309503213E+08, 4.692335387034640E+06,
2461225.500000000, A.D. 2026-Jul-04 00:00:00.0000, 2.234571084399743E+08, 2.810125308394895E+08, 4.127417680524722E+06,
2461232.500000000, A.D. 2026-Jul-11 00:00:00.0000, 2.139073498452159E+08, 2.877438323399715E+08, 3.558171285301477E+06,
2461239.500000000, A.D. 2026-Jul-18 00:00:00.0000, 2.041323408439068E+08, 2.941721367082759E+08, 2.985178019566849E+06,
2461246.500000000, A.D. 2026-Jul-25 00:00:00.0000, 1.941414909465005E+08, 3.002894101176212E+08, 2.409028624594778E+06,
2461253.500000000, A.D. 2026-Aug-01 00:00:00.0000, 1.839445256548589E+08, 3.060878976151861E+08, 1.830322163201571E+06,
2461260.500000000, A.D. 2026-Aug-08 00:00:00.0000, 1.735514796605580E+08, 3.115601368935387E+08, 1.249665349589556E+06,
2461267.500000000, A.D. 2026-Aug-15 00:00:00.0000, 1.629726900045370E+08, 3.166989722905662E+08, 6.676718093127459E+05,
2461274.500000000, A.D. 2026-Aug-22 00:00:00.0000, 1.522187884275717E+08, 3.214975701984857E+08, 8.496143869477510E+04,
2461281.500000000, A.D. 2026-Aug-29 00:00:00.0000, 1.413006906094203E+08, 3.259494344599301E+08, -4.978400381657630E+05,
2461288.500000000, A.D. 2026-Sep-05 00:00:00.0000, 1.302295844162686E+08, 3.300484188419824E+08, -1.080101743297249E+06,
$$EOE